1 08820U 76039A   03171.40113877  .00000008  00000-0  10000-3 0  9268
2 08820 109.8031 182.7004 0044539 300.7574  58.8693  6.38664388377261
